{"type": "FeatureCollection", "features": [ {"type": "Feature", "properties": {"norad_id": 30481, "name": "FENGYUN 1C DEB", "group": "fengyun-1c-debris", "lat": 60.2534389571339, "lon": 0.44753946828280716, "alt_km": 908.3250376316801, "timestamp": "2025-12-24T07:45:06.476264+00:00", "meta": {"OBJECT_NAME": "FENGYUN 1C DEB", "OBJECT_ID": "1999-025AGT", "EPOCH": "2025-12-23T23:26:11.468832", "MEAN_MOTION": 14.39080586, "ECCENTRICITY": 0.02232549, "INCLINATION": 98.3364, "RA_OF_ASC_NODE": 14.9778, "ARG_OF_PERICENTER": 226.0451, "MEAN_ANOMALY": 202.1706, "EPHEMERIS_TYPE": 0, "CLASSIFICATION_TYPE": "U", "NORAD_CAT_ID": 30481, "ELEMENT_SET_NO": 999, "REV_AT_EPOCH": 98645, "BSTAR": 0.00043483576, "MEAN_MOTION_DOT": 1.747e-05, "MEAN_MOTION_DDOT": 0}, "tle": {"line1": "1 30481U 99025AGT 25357.97652163  .00001747  00000+0  43484-3 0  9996", "line2": "2 30481  98.3364  14.9778 0223254 226.0451 202.1706 14.39080586986459"}}, "geometry": {"type": "Point", "coordinates": [0.44753946828280716, 60.2534389571339]}}, {"type": "Feature", "properties": {"norad_id": 30489, "name": "FENGYUN 1C DEB", "group": "fengyun-1c-debris", "lat": 28.737708534221543, "lon": 7.961695877765803, "alt_km": 930.8708969431436, "timestamp": "2025-12-24T07:45:06.476275+00:00", "meta": {"OBJECT_NAME": "FENGYUN 1C DEB", "OBJECT_ID": "1999-025AHB", "EPOCH": "2025-12-23T23:26:23.112960", "MEAN_MOTION": 14.1583315, "ECCENTRICITY": 0.01391715, "INCLINATION": 98.4679, "RA_OF_ASC_NODE": 12.318, "ARG_OF_PERICENTER": 232.4385, "MEAN_ANOMALY": 191.8609, "EPHEMERIS_TYPE": 0, "CLASSIFICATION_TYPE": "U", "NORAD_CAT_ID": 30489, "ELEMENT_SET_NO": 999, "REV_AT_EPOCH": 97546, "BSTAR": 0.00023198038, "MEAN_MOTION_DOT": 4.59e-06, "MEAN_MOTION_DDOT": 0}, "tle": {"line1": "1 30489U 99025AHB 25357.97665640  .00000459  00000+0  23198-3 0  9997", "line2": "2 30489  98.4679  12.3180 0139171 232.4385 191.8609 14.15833150975469"}}, "geometry": {"type": "Point", "coordinates": [7.961695877765803, 28.737708534221543]}}, {"type": "Feature", "properties": {"norad_id": 30490, "name": "FENGYUN 1C DEB", "group": "fengyun-1c-debris", "lat": -64.66832700046717, "lon": -66.66066582819147, "alt_km": 511.38177319463466, "timestamp": "2025-12-24T07:45:06.476284+00:00", "meta": {"OBJECT_NAME": "FENGYUN 1C DEB", "OBJECT_ID": "1999-025AHC", "EPOCH": "2025-12-23T14:59:37.882464", "MEAN_MOTION": 15.30604681, "ECCENTRICITY": 0.00452598, "INCLINATION": 98.3284, "RA_OF_ASC_NODE": 130.5835, "ARG_OF_PERICENTER": 77.1971, "MEAN_ANOMALY": 283.4319, "EPHEMERIS_TYPE": 0, "CLASSIFICATION_TYPE": "U", "NORAD_CAT_ID": 30490, "ELEMENT_SET_NO": 999, "REV_AT_EPOCH": 99662, "BSTAR": 0.0034177894, "MEAN_MOTION_DOT": 0.00105553, "MEAN_MOTION_DDOT": 0}, "tle": {"line1": "1 30490U 99025AHC 25357.62474401  .00105553  00000+0  34178-2 0  9994", "line2": "2 30490  98.3284 130.5835 0045259  77.1971 283.4319 15.30604681996620"}}, "geometry": {"type": "Point", "coordinates": [-66.66066582819147, -64.66832700046717]}}, {"type": "Feature", "properties": {"norad_id": 30492, "name": "FENGYUN 1C DEB", "group": "fengyun-1c-debris", "lat": -31.49072796594501, "lon": -166.77822575632112, "alt_km": 791.4197467048343, "timestamp": "2025-12-24T07:45:06.476299+00:00", "meta": {"OBJECT_NAME": "FENGYUN 1C DEB", "OBJECT_ID": "1999-025AHE", "EPOCH": "2025-12-23T19:12:18.137088", "MEAN_MOTION": 14.52111932, "ECCENTRICITY": 0.00941541, "INCLINATION": 102.3248, "RA_OF_ASC_NODE": 20.1543, "ARG_OF_PERICENTER": 33.1857, "MEAN_ANOMALY": 327.5181, "EPHEMERIS_TYPE": 0, "CLASSIFICATION_TYPE": "U", "NORAD_CAT_ID": 30492, "ELEMENT_SET_NO": 999, "REV_AT_EPOCH": 97055, "BSTAR": 0.0029505578, "MEAN_MOTION_DOT": 0.000126, "MEAN_MOTION_DDOT": 0}, "tle": {"line1": "1 30492U 99025AHE 25357.80020992  .00012600  00000+0  29506-2 0  9997", "line2": "2 30492 102.3248  20.1543 0094154  33.1857 327.5181 14.52111932970557"}}, "geometry": {"type": "Point", "coordinates": [-166.77822575632112, -31.49072796594501]}}, {"type": "Feature", "properties": {"norad_id": 30493, "name": "FENGYUN 1C DEB", "group": "fengyun-1c-debris", "lat": -53.85726641982178, "lon": -4.108081995543762, "alt_km": 838.6994706393034, "timestamp": "2025-12-24T07:45:06.476309+00:00", "meta": {"OBJECT_NAME": "FENGYUN 1C DEB", "OBJECT_ID": "1999-025AHF", "EPOCH": "2025-12-23T00:20:27.661056", "MEAN_MOTION": 13.93041001, "ECCENTRICITY": 0.0180713, "INCLINATION": 98.5711, "RA_OF_ASC_NODE": 186.5959, "ARG_OF_PERICENTER": 188.3454, "MEAN_ANOMALY": 324.8864, "EPHEMERIS_TYPE": 0, "CLASSIFICATION_TYPE": "U", "NORAD_CAT_ID": 30493, "ELEMENT_SET_NO": 999, "REV_AT_EPOCH": 95238, "BSTAR": 0.0025683713, "MEAN_MOTION_DOT": 3.782e-05, "MEAN_MOTION_DDOT": 0}, "tle": {"line1": "1 30493U 99025AHF 25357.01420904  .00003782  00000+0  25684-2 0  9992", "line2": "2 30493  98.5711 186.5959 0180713 188.3454 324.8864 13.93041001952382"}}, "geometry": {"type": "Point", "coordinates": [-4.108081995543762, -53.85726641982178]}}, {"type": "Feature", "properties": {"norad_id": 30494, "name": "FENGYUN 1C DEB", "group": "fengyun-1c-debris", "lat": -52.53479307177156, "lon": 45.79711075995581, "alt_km": 1028.3722703084768, "timestamp": "2025-12-24T07:45:06.476320+00:00", "meta": {"OBJECT_NAME": "FENGYUN 1C DEB", "OBJECT_ID": "1999-025AHG", "EPOCH": "2025-12-20T20:27:26.731008", "MEAN_MOTION": 13.79394652, "ECCENTRICITY": 0.0186172, "INCLINATION": 99.2815, "RA_OF_ASC_NODE": 30.0747, "ARG_OF_PERICENTER": 200.8117, "MEAN_ANOMALY": 158.5384, "EPHEMERIS_TYPE": 0, "CLASSIFICATION_TYPE": "U", "NORAD_CAT_ID": 30494, "ELEMENT_SET_NO": 999, "REV_AT_EPOCH": 94598, "BSTAR": 0.0010376, "MEAN_MOTION_DOT": 1.17e-05, "MEAN_MOTION_DDOT": 0}, "tle": {"line1": "1 30494U 99025AHG 25354.85239272  .00001170  00000+0  10376-2 0  9999", "line2": "2 30494  99.2815  30.0747 0186172 200.8117 158.5384 13.79394652945989"}}, "geometry": {"type": "Point", "coordinates": [45.79711075995581, -52.53479307177156]}}, {"type": "Feature", "properties": {"norad_id": 30495, "name": "FENGYUN 1C DEB", "group": "fengyun-1c-debris", "lat": 8.91819113909606, "lon": 86.54077461183849, "alt_km": 1537.6099243934987, "timestamp": "2025-12-24T07:45:06.476330+00:00", "meta": {"OBJECT_NAME": "FENGYUN 1C DEB", "OBJECT_ID": "1999-025AHH", "EPOCH": "2025-12-23T05:43:57.332928", "MEAN_MOTION": 12.94425586, "ECCENTRICITY": 0.05977624, "INCLINATION": 102.2599, "RA_OF_ASC_NODE": 87.2817, "ARG_OF_PERICENTER": 245.2238, "MEAN_ANOMALY": 108.5545, "EPHEMERIS_TYPE": 0, "CLASSIFICATION_TYPE": "U", "NORAD_CAT_ID": 30495, "ELEMENT_SET_NO": 999, "REV_AT_EPOCH": 88809, "BSTAR": 0.003858512, "MEAN_MOTION_DOT": 2.368e-05, "MEAN_MOTION_DDOT": 0}, "tle": {"line1": "1 30495U 99025AHH 25357.23885802  .00002368  00000+0  38585-2 0  9993", "line2": "2 30495 102.2599  87.2817 0597762 245.2238 108.5545 12.94425586888093"}}, "geometry": {"type": "Point", "coordinates": [86.54077461183849, 8.91819113909606]}}, {"type": "Feature", "properties": {"norad_id": 30496, "name": "FENGYUN 1C DEB", "group": "fengyun-1c-debris", "lat": -77.05537180223018, "lon": -52.19199291242555, "alt_km": 660.9114572766157, "timestamp": "2025-12-24T07:45:06.476340+00:00", "meta": {"OBJECT_NAME": "FENGYUN 1C DEB", "OBJECT_ID": "1999-025AHJ", "EPOCH": "2025-12-23T12:49:46.436736", "MEAN_MOTION": 14.944017, "ECCENTRICITY": 0.01298557, "INCLINATION": 98.7835, "RA_OF_ASC_NODE": 264.6512, "ARG_OF_PERICENTER": 62.7358, "MEAN_ANOMALY": 298.7017, "EPHEMERIS_TYPE": 0, "CLASSIFICATION_TYPE": "U", "NORAD_CAT_ID": 30496, "ELEMENT_SET_NO": 999, "REV_AT_EPOCH": 1305, "BSTAR": 0.00062026542, "MEAN_MOTION_DOT": 7.824e-05, "MEAN_MOTION_DDOT": 0}, "tle": {"line1": "1 30496U 99025AHJ 25357.53456524  .00007824  00000+0  62027-3 0  9993", "line2": "2 30496  98.7835 264.6512 0129855  62.7358 298.7017 14.94401700 13054"}}, "geometry": {"type": "Point", "coordinates": [-52.19199291242555, -77.05537180223018]}}, {"type": "Feature", "properties": {"norad_id": 30498, "name": "FENGYUN 1C DEB", "group": "fengyun-1c-debris", "lat": -33.30508705361357, "lon": 55.81783067816112, "alt_km": 948.3712743628548, "timestamp": "2025-12-24T07:45:06.476350+00:00", "meta": {"OBJECT_NAME": "FENGYUN 1C DEB", "OBJECT_ID": "1999-025AHL", "EPOCH": "2025-12-22T22:35:45.269088", "MEAN_MOTION": 14.06122497, "ECCENTRICITY": 0.0103819, "INCLINATION": 99.2375, "RA_OF_ASC_NODE": 48.2712, "ARG_OF_PERICENTER": 128.0407, "MEAN_ANOMALY": 49.3329, "EPHEMERIS_TYPE": 0, "CLASSIFICATION_TYPE": "U", "NORAD_CAT_ID": 30498, "ELEMENT_SET_NO": 999, "REV_AT_EPOCH": 95912, "BSTAR": 0.0015488, "MEAN_MOTION_DOT": 2.627e-05, "MEAN_MOTION_DDOT": 0}, "tle": {"line1": "1 30498U 99025AHL 25356.94149617  .00002627  00000+0  15488-2 0  9995", "line2": "2 30498  99.2375  48.2712 0103819 128.0407  49.3329 14.06122497959121"}}, "geometry": {"type": "Point", "coordinates": [55.81783067816112, -33.30508705361357]}}, {"type": "Feature", "properties": {"norad_id": 30500, "name": "FENGYUN 1C DEB", "group": "fengyun-1c-debris", "lat": -78.99376785821937, "lon": -145.0272215461465, "alt_km": 860.3399494400983, "timestamp": "2025-12-24T07:45:06.476362+00:00", "meta": {"OBJECT_NAME": "FENGYUN 1C DEB", "OBJECT_ID": "1999-025AHN", "EPOCH": "2025-12-23T12:33:13.179744", "MEAN_MOTION": 14.25307164, "ECCENTRICITY": 0.00634561, "INCLINATION": 99.072, "RA_OF_ASC_NODE": 89.3806, "ARG_OF_PERICENTER": 85.4561, "MEAN_ANOMALY": 36.0873, "EPHEMERIS_TYPE": 0, "CLASSIFICATION_TYPE": "U", "NORAD_CAT_ID": 30500, "ELEMENT_SET_NO": 999, "REV_AT_EPOCH": 96835, "BSTAR": 0.002304924, "MEAN_MOTION_DOT": 5.5e-05, "MEAN_MOTION_DDOT": 0}, "tle": {"line1": "1 30500U 99025AHN 25357.52306921  .00005500  00000+0  23049-2 0  9992", "line2": "2 30500  99.0720  89.3806 0063456  85.4561  36.0873 14.25307164968355"}}, "geometry": {"type": "Point", "coordinates": [-145.0272215461465, -78.99376785821937]}}]}